NORAD_CAT_ID,OBJECT_NAME,OBJECT_TYPE,EPOCH,MEAN_MOTION,ECCENTRICITY,INCLINATION,RA_OF_ASC_NODE,ARG_OF_PERICENTER,MEAN_ANOMALY,BSTAR,MEAN_MOTION_DOT,MEAN_MOTION_DDOT,TLE_LINE0,TLE_LINE1,TLE_LINE2,SEMIMAJOR_AXIS,PERIOD,APOGEE,PERIGEE,DECAYED
55673.0,STARLINK-5463,PAYLOAD,2024-05-29 21:29:09,14.98332833,0.0002732,70.0007,0.2088,260.8816,99.2034,9.4178e-07,-8.2e-07,0.0,0 STARLINK-5463,1 55673U 23021AX  24150.89524527 -.00000082  00000-0  94178-6 0  9994,2 55673  70.0007   0.2088 0002732 260.8816  99.2034 14.98332833 71802,6950.184,96.107,573.948,570.15,0.0
55673.0,STARLINK-5463,PAYLOAD,2024-05-30 13:30:29,14.98332854,0.0002862,70.0003,358.525,264.057,96.0263,9.228e-05,1.008e-05,0.0,0 STARLINK-5463,1 55673U 23021AX  24151.56284270  .00001008  00000-0  92280-4 0  9995,2 55673  70.0003 358.5250 0002862 264.0570  96.0263 14.98332854 72202,6950.184,96.107,574.038,570.06,0.0
55673.0,STARLINK-5463,PAYLOAD,2024-05-30 21:31:09,14.98335024,0.0002857,70.0003,357.6833,262.856,97.2275,0.00011054,1.226e-05,0.0,0 STARLINK-5463,1 55673U 23021AX  24151.89664039  .00001226  00000-0  11054-3 0  9997,2 55673  70.0003 357.6833 0002857 262.8560  97.2275 14.98335024 72251,6950.177,96.107,574.028,570.057,0.0
55673.0,STARLINK-5463,PAYLOAD,2024-05-31 13:32:30,14.98333032,0.0002818,70.0003,355.9996,260.7901,99.2939,8.6542e-05,9.4e-06,0.0,0 STARLINK-5463,1 55673U 23021AX  24152.56424141  .00000940  00000-0  86542-4 0  9997,2 55673  70.0003 355.9996 0002818 260.7901  99.2939 14.98333032 72352,6950.184,96.107,574.007,570.09,0.0
55673.0,STARLINK-5463,PAYLOAD,2024-05-31 19:57:02,14.98329874,0.0003091,69.9997,355.3257,270.7594,89.3211,6.6914e-05,7.05e-06,0.0,0 STARLINK-5463,1 55673U 23021AX  24152.83128385  .00000705  00000-0  66914-4 0  9998,2 55673  69.9997 355.3257 0003091 270.7594  89.3211 14.98329874 72091,6950.193,96.107,574.207,569.91,0.0
55673.0,STARLINK-5463,PAYLOAD,2024-05-31 21:33:10,14.98330142,0.000299,69.9999,355.1572,267.4306,92.6511,7.737e-05,8.3e-06,0.0,0 STARLINK-5463,1 55673U 23021AX  24152.89804293  .00000830  00000-0  77370-4 0  9990,2 55673  69.9999 355.1572 0002990 267.4306  92.6511 14.98330142 72407,6950.192,96.107,574.136,569.979,0.0
55673.0,STARLINK-5463,PAYLOAD,2024-06-01 13:34:31,14.9832943,0.0002943,70.0001,353.4744,272.1697,87.9125,4.6785e-06,-3.7e-07,0.0,0 STARLINK-5463,1 55673U 23021AX  24153.56564552 -.00000037  00000-0  46785-5 0  9993,2 55673  70.0001 353.4744 0002943 272.1697  87.9125 14.98329430 72507,6950.195,96.107,574.105,570.014,0.0
55673.0,STARLINK-5463,PAYLOAD,2024-06-01 21:35:12,14.98329664,0.0002972,70.0001,352.6315,269.1369,90.945,-5.4057e-06,-1.57e-06,0.0,0 STARLINK-5463,1 55673U 23021AX  24153.89944521 -.00000157  00000-0 -54057-5 0  9992,2 55673  70.0001 352.6315 0002972 269.1369  90.9450 14.98329664 72252,6950.194,96.107,574.125,569.993,0.0
55673.0,STARLINK-5463,PAYLOAD,2024-06-02 07:12:00,14.98334446,0.0002984,70.0001,351.6217,264.3987,95.6832,-2.8378e-05,-4.32e-06,0.0,0 STARLINK-5463,1 55673U 23021AX  24154.30000191 -.00000432  00000-0 -28378-4 0  9997,2 55673  70.0001 351.6217 0002984 264.3987  95.6832 14.98334446 72618,6950.179,96.107,574.118,569.97,0.0
55673.0,STARLINK-5463,PAYLOAD,2024-06-03 12:02:25,14.98332418,0.0003046,70.0,348.592,270.0029,90.0781,0.00010761,1.191e-05,0.0,0 STARLINK-5463,1 55673U 23021AX  24155.50168093  .00001191  00000-0  10761-3 0  9993,2 55673  70.0000 348.5920 0003046 270.0029  90.0781 14.98332418 72499,6950.185,96.107,574.167,569.933,0.0
55673.0,STARLINK-5463,PAYLOAD,2024-06-04 05:39:53,14.98334932,0.000311,70.0,346.7402,270.2473,89.833,8.5544e-05,9.28e-06,0.0,0 STARLINK-5463,1 55673U 23021AX  24156.23603888  .00000928  00000-0  85544-4 0  9999,2 55673  70.0000 346.7402 0003110 270.2473  89.8330 14.98334932 72906,6950.178,96.107,574.204,569.881,0.0
55673.0,STARLINK-5463,PAYLOAD,2024-06-04 18:28:58,14.98333085,0.0002976,69.9999,345.3934,270.0699,90.0119,4.1324e-05,4e-06,0.0,0 STARLINK-5463,1 55673U 23021AX  24156.77011988  .00000400  00000-0  41324-4 0  9995,2 55673  69.9999 345.3934 0002976 270.0699  90.0119 14.98333085 72684,6950.183,96.107,574.117,569.98,0.0
55673.0,STARLINK-5463,PAYLOAD,2024-06-05 12:06:27,14.98324991,0.0002711,69.9949,343.5417,271.3469,88.7379,-7.4413e-06,-1.82e-06,0.0,0 STARLINK-5463,1 55673U 23021AX  24157.50448660 -.00000182  00000-0 -74413-5 0  9993,2 55673  69.9949 343.5417 0002711 271.3469  88.7379 14.98324991 72791,6950.208,96.107,573.958,570.189,0.0
55673.0,STARLINK-5463,PAYLOAD,2024-06-05 21:43:16,14.98323666,0.000276,69.9988,342.5327,268.7404,91.3438,-3.3482e-05,-4.92e-06,0.0,0 STARLINK-5463,1 55673U 23021AX  24157.90504927 -.00000492  00000-0 -33482-4 0  9990,2 55673  69.9988 342.5327 0002760 268.7404  91.3438 14.98323666 73151,6950.212,96.107,573.996,570.159,0.0
55673.0,STARLINK-5463,PAYLOAD,2024-06-06 05:43:56,14.98330401,0.000279,69.9956,341.6899,270.2112,89.8728,1.8003e-05,1.22e-06,0.0,0 STARLINK-5463,1 55673U 23021AX  24158.23884436  .00000122  00000-0  18003-4 0  9993,2 55673  69.9956 341.6899 0002790 270.2112  89.8728 14.98330401 73202,6950.192,96.107,573.996,570.118,0.0
55673.0,STARLINK-5463,PAYLOAD,2024-06-06 21:45:15,14.9836411,0.0002885,69.9955,340.0063,267.3251,92.7578,-0.00040905,-4.975e-05,0.0,0 STARLINK-5463,1 55673U 23021AX  24158.90643336 -.00004975  00000-0 -40905-3 0  9996,2 55673  69.9955 340.0063 0002885 267.3251  92.7578 14.98364110 73001,6950.087,96.105,573.958,569.947,0.0
55673.0,STARLINK-5463,PAYLOAD,2024-06-07 18:35:01,14.9833053,0.0002864,69.9977,337.8182,269.5667,90.5164,0.00014252,1.608e-05,0.0,0 STARLINK-5463,1 55673U 23021AX  24159.77432208  .00001608  00000-0  14252-3 0  9990,2 55673  69.9977 337.8182 0002864 269.5667  90.5164 14.98330530 73133,6950.191,96.107,574.047,570.066,0.0
55673.0,STARLINK-5463,PAYLOAD,2024-06-07 21:47:17,14.98331218,0.0002863,69.9976,337.4815,269.6041,90.479,0.00014515,1.639e-05,0.0,0 STARLINK-5463,1 55673U 23021AX  24159.90784161  .00001639  00000-0  14515-3 0  9999,2 55673  69.9976 337.4815 0002863 269.6041  90.4790 14.98331218 73450,6950.189,96.107,574.044,570.064,0.0
55673.0,STARLINK-5463,PAYLOAD,2024-06-08 12:12:29,14.98337795,0.0002891,69.998,335.9665,271.0342,89.0486,5.7984e-05,5.99e-06,0.0,0 STARLINK-5463,1 55673U 23021AX  24160.50867826  .00000599  00000-0  57984-4 0  9999,2 55673  69.9980 335.9665 0002891 271.0342  89.0486 14.98337795 73545,6950.169,96.106,574.043,570.024,0.0
55673.0,STARLINK-5463,PAYLOAD,2024-06-08 20:13:09,14.98339765,0.0002898,69.9998,335.125,272.384,87.6987,0.00013995,1.578e-05,0.0,0 STARLINK-5463,1 55673U 23021AX  24160.84247344  .00001578  00000-0  13995-3 0  9994,2 55673  69.9998 335.1250 0002898 272.3840  87.6987 14.98339765 73291,6950.163,96.106,574.042,570.014,0.0
55673.0,STARLINK-5463,PAYLOAD,2024-06-08 21:49:17,14.98340745,0.0002892,69.9999,334.9567,272.3847,87.6981,0.00015144,1.715e-05,0.0,0 STARLINK-5463,1 55673U 23021AX  24160.90923233  .00001715  00000-0  15144-3 0  9990,2 55673  69.9999 334.9567 0002892 272.3847  87.6981 14.98340745 73600,6950.16,96.106,574.035,570.015,0.0
55673.0,STARLINK-5463,PAYLOAD,2024-06-09 12:14:31,14.98321091,0.0002964,70.0045,333.4422,273.8979,86.1841,0.00010433,1.152e-05,0.0,0 STARLINK-5463,1 55673U 23021AX  24161.51008609  .00001152  00000-0  10433-3 0  9990,2 55673  70.0045 333.4422 0002964 273.8979  86.1841 14.98321091 73399,6950.22,96.108,574.145,570.025,0.0
55673.0,STARLINK-5463,PAYLOAD,2024-06-09 21:51:21,14.98287882,0.0002518,70.0037,332.4323,270.1483,89.9387,0.00063102,7.436e-05,0.0,0 STARLINK-5463,1 55673U 23021AX  24161.91066219  .00007436  00000-0  63102-3 0  9997,2 55673  70.0037 332.4323 0002518 270.1483  89.9387 14.98287882 73759,6950.323,96.11,573.938,570.438,0.0
55673.0,STARLINK-5463,PAYLOAD,2024-06-10 04:15:51,14.9833037,0.0002978,69.9988,331.7583,272.5454,87.5364,2.639e-05,2.22e-06,0.0,0 STARLINK-5463,1 55673U 23021AX  24162.17768303  .00000222  00000-0  26390-4 0  9994,2 55673  69.9988 331.7583 0002978 272.5454  87.5364 14.98330370 73496,6950.192,96.107,574.127,569.987,0.0
55673.0,STARLINK-5463,PAYLOAD,2024-06-10 13:52:39,14.98336121,0.0003027,69.9996,330.7486,269.8024,90.2788,6.6446e-05,7e-06,0.0,0 STARLINK-5463,1 55673U 23021AX  24162.57823822  .00000700  00000-0  66446-4 0  9993,2 55673  69.9996 330.7486 0003027 269.8024  90.2788 14.98336121 73855,6950.174,96.107,574.143,569.935,0.0
55673.0,STARLINK-5463,PAYLOAD,2024-06-10 20:17:11,14.9834126,0.0003053,69.9999,330.0753,268.5984,91.4825,9.5704e-05,1.049e-05,0.0,0 STARLINK-5463,1 55673U 23021AX  24162.84527405  .00001049  00000-0  95704-4 0  9997,2 55673  69.9999 330.0753 0003053 268.5984  91.4825 14.98341260 73594,6950.158,96.106,574.145,569.901,0.0
55673.0,STARLINK-5463,PAYLOAD,2024-06-11 13:54:40,14.98329004,0.0002938,70.0007,328.2253,271.1598,88.9224,0.00015094,1.708e-05,0.0,0 STARLINK-5463,1 55673U 23021AX  24163.57964097  .00001708  00000-0  15094-3 0  9995,2 55673  70.0007 328.2253 0002938 271.1598  88.9224 14.98329004 74006,6950.196,96.107,574.103,570.019,0.0
55673.0,STARLINK-5463,PAYLOAD,2024-06-12 04:19:53,14.98329576,0.0003322,69.9999,326.7101,267.5576,92.5203,8.0145e-05,8.63e-06,0.0,0 STARLINK-5463,1 55673U 23021AX  24164.18048039  .00000863  00000-0  80145-4 0  9993,2 55673  69.9999 326.7101 0003322 267.5576  92.5203 14.98329576 73798,6950.194,96.107,574.368,569.75,0.0
55673.0,STARLINK-5463,PAYLOAD,2024-06-12 20:21:14,14.98326827,0.0002836,70.0006,325.0254,264.9569,95.1266,-1.4568e-05,-2.67e-06,0.0,0 STARLINK-5463,1 55673U 23021AX  24164.84808597 -.00000267  00000-0 -14568-4 0  9995,2 55673  70.0006 325.0254 0002836 264.9569  95.1266 14.98326827 74192,6950.203,96.107,574.039,570.097,0.0
55673.0,STARLINK-5463,PAYLOAD,2024-06-13 04:21:54,14.98331524,0.0002716,70.001,324.1839,272.2056,87.8792,2.864e-05,2.49e-06,0.0,0 STARLINK-5463,1 55673U 23021AX  24165.18188304  .00000249  00000-0  28640-4 0  9994,2 55673  70.0010 324.1839 0002716 272.2056  87.8792 14.98331524 73940,6950.188,96.107,573.941,570.166,0.0
